COMMENT,ORIGINATOR,NORAD_CAT_ID,OBJECT_NAME,OBJECT_TYPE,CLASSIFICATION_TYPE,INTLDES,EPOCH,EPOCH_MICROSECONDS,MEAN_MOTION,ECCENTRICITY,INCLINATION,RA_OF_ASC_NODE,ARG_OF_PERICENTER,MEAN_ANOMALY,EPHEMERIS_TYPE,ELEMENT_SET_NO,REV_AT_EPOCH,BSTAR,MEAN_MOTION_DOT,MEAN_MOTION_DDOT,FILE,TLE_LINE0,TLE_LINE1,TLE_LINE2,OBJECT_ID,OBJECT_NUMBER,SEMIMAJOR_AXIS,PERIOD,APOGEE,PERIGEE,DECAYED
"GENERATED VIA SPACETRACK.ORG API","18 SPCS","55101","SPACEBEE-159","PAYLOAD","U","23001CW","2024-03-14 10:46:34","317984","15.38119377","0.0011982","97.4329","139.7421","128.6733","231.5586","0","999","6652","0.0012769","0.00048186","0","4225645","0 SPACEBEE-159","1 55101U 23001CW  24074.44900831  .00048186  00000-0  12769-2 0  9998","2 55101  97.4329 139.7421 0011982 128.6733 231.5586 15.38119377 66520","2023-001CW","55101","6829.808","93.621","459.856","443.489","0"
"GENERATED VIA SPACETRACK.ORG API","18 SPCS","55101","SPACEBEE-159","PAYLOAD","U","23001CW","2024-03-15 03:57:02","775744","15.38191571","0.0011916","97.4328","140.467","126.2659","233.9689","0","999","6663","0.0013398","0.00050698","0","4226117","0 SPACEBEE-159","1 55101U 23001CW  24075.16461546  .00050698  00000-0  13398-2 0  9993","2 55101  97.4328 140.4670 0011916 126.2659 233.9689 15.38191571 66630","2023-001CW","55101","6829.594","93.616","459.597","443.321","0"
"GENERATED VIA SPACETRACK.ORG API","18 SPCS","55101","SPACEBEE-159","PAYLOAD","U","23001CW","2024-03-15 14:52:46","693632","15.3823203","0.0011918","97.4327","140.9284","124.8697","235.367","0","999","6670","0.0011752","0.00044482","0","4227250","0 SPACEBEE-159","1 55101U 23001CW  24075.61998488  .00044482  00000-0  11752-2 0  9999","2 55101  97.4327 140.9284 0011918 124.8697 235.3670 15.38232030 66703","2023-001CW","55101","6829.474","93.614","459.479","443.200","0"
"GENERATED VIA SPACETRACK.ORG API","18 SPCS","55101","SPACEBEE-159","PAYLOAD","U","23001CW","2024-03-16 09:36:50","918112","15.38300107","0.0011861","97.4328","141.7193","122.4112","237.8282","0","999","6682","0.0010755","0.00040771","0","4228456","0 SPACEBEE-159","1 55101U 23001CW  24076.40058933  .00040771  00000-0  10755-2 0  9998","2 55101  97.4328 141.7193 0011861 122.4112 237.8282 15.38300107 66825","2023-001CW","55101","6829.273","93.610","459.238","443.038","0"
"GENERATED VIA SPACETRACK.ORG API","18 SPCS","55101","SPACEBEE-159","PAYLOAD","U","23001CW","2024-03-16 09:36:50","918112","15.38300107","0.0011861","97.4328","141.7193","122.4112","237.8282","0","999","6682","0.0010755","0.00040771","0","4228482","0 SPACEBEE-159","1 55101U 23001CW  24076.40058933  .00040771  00000-0  10755-2 0  9998","2 55101  97.4328 141.7193 0011861 122.4112 237.8282 15.38300107 66825","2023-001CW","55101","6829.273","93.610","459.238","443.038","0"
"GENERATED VIA SPACETRACK.ORG API","18 SPCS","55101","SPACEBEE-159","PAYLOAD","U","23001CW","2024-03-16 17:25:11","814816","15.38329046","0.001188","97.4327","142.0489","121.3952","238.8457","0","999","6687","0.0010804","0.00040997","0","4229019","0 SPACEBEE-159","1 55101U 23001CW  24076.72583119  .00040997  00000-0  10804-2 0  9997","2 55101  97.4327 142.0489 0011880 121.3952 238.8457 15.38329046 66870","2023-001CW","55101","6829.187","93.608","459.165","442.939","0"
"GENERATED VIA SPACETRACK.ORG API","18 SPCS","55101","SPACEBEE-159","PAYLOAD","U","23001CW","2024-03-17 04:20:52","149696","15.38370523","0.0011865","97.4327","142.5103","119.8447","240.3979","0","999","6694","0.0010991","0.00041768","0","4230125","0 SPACEBEE-159","1 55101U 23001CW  24077.18115914  .00041768  00000-0  10991-2 0  9996","2 55101  97.4327 142.5103 0011865 119.8447 240.3979 15.38370523 66943","2023-001CW","55101","6829.064","93.606","459.032","442.827","0"
"GENERATED VIA SPACETRACK.ORG API","18 SPCS","55101","SPACEBEE-159","PAYLOAD","U","23001CW","2024-03-17 16:50:11","358240","15.38414135","0.0011806","97.4326","143.0374","117.8842","242.36","0","999","6702","0.001049","0.00039907","0","4230661","0 SPACEBEE-159","1 55101U 23001CW  24077.70152035  .00039907  00000-0  10490-2 0  9995","2 55101  97.4326 143.0374 0011806 117.8842 242.3600 15.38414135 67021","2023-001CW","55101","6828.935","93.603","458.863","442.738","0"
"GENERATED VIA SPACETRACK.ORG API","18 SPCS","55101","SPACEBEE-159","PAYLOAD","U","23001CW","2024-03-17 16:50:11","358240","15.38414135","0.0011806","97.4326","143.0374","117.8842","242.36","0","999","6702","0.001049","0.00039907","0","4230670","0 SPACEBEE-159","1 55101U 23001CW  24077.70152035  .00039907  00000-0  10490-2 0  9995","2 55101  97.4326 143.0374 0011806 117.8842 242.3600 15.38414135 67021","2023-001CW","55101","6828.935","93.603","458.863","442.738","0"
"GENERATED VIA SPACETRACK.ORG API","18 SPCS","55101","SPACEBEE-159","PAYLOAD","U","23001CW","2024-03-18 03:45:49","556448","15.38453044","0.0011759","97.4324","143.4987","116.3715","243.8738","0","999","6709","0.0010479","0.00039914","0","4231680","0 SPACEBEE-159","1 55101U 23001CW  24078.15682357  .00039914  00000-0  10479-2 0  9995","2 55101  97.4324 143.4987 0011759 116.3715 243.8738 15.38453044 67090","2023-001CW","55101","6828.820","93.601","458.715","442.655","0"
"GENERATED VIA SPACETRACK.ORG API","18 SPCS","55101","SPACEBEE-159","PAYLOAD","U","23001CW","2024-03-19 03:10:42","20256","15.38550379","0.0011687","97.4322","144.4875","113.2212","247.0265","0","999","6724","0.0012754","0.00048806","0","4232807","0 SPACEBEE-159","1 55101U 23001CW  24079.13243079  .00048806  00000-0  12754-2 0  9996","2 55101  97.4322 144.4875 0011687 113.2212 247.0265 15.38550379 67240","2023-001CW","55101","6828.532","93.595","458.378","442.417","0"
"GENERATED VIA SPACETRACK.ORG API","18 SPCS","55101","SPACEBEE-159","PAYLOAD","U","23001CW","2024-03-19 03:10:42","20256","15.38550379","0.0011687","97.4322","144.4875","113.2212","247.0265","0","999","6724","0.0012754","0.00048806","0","4233772","0 SPACEBEE-159","1 55101U 23001CW  24079.13243079  .00048806  00000-0  12754-2 0  9996","2 55101  97.4322 144.4875 0011687 113.2212 247.0265 15.38550379 67240","2023-001CW","55101","6828.532","93.595","458.378","442.417","0"
"GENERATED VIA SPACETRACK.ORG API","18 SPCS","55101","SPACEBEE-159","PAYLOAD","U","23001CW","2024-03-19 17:13:34","394016","15.38633783","0.0011629","97.4324","145.0809","111.4851","248.7635","0","999","6733","0.001634","0.00062834","0","4233762","0 SPACEBEE-159","1 55101U 23001CW  24079.71775919  .00062834  00000-0  16340-2 0  9995","2 55101  97.4324 145.0809 0011629 111.4851 248.7635 15.38633783 67331","2023-001CW","55101","6828.285","93.590","458.091","442.210","0"
"GENERATED VIA SPACETRACK.ORG API","18 SPCS","55101","SPACEBEE-159","PAYLOAD","U","23001CW","2024-03-20 04:09:06","748128","15.3869462","0.0011681","97.4326","145.5425","110.5105","249.7395","0","999","6740","0.0014758","0.00056812","0","4234892","0 SPACEBEE-159","1 55101U 23001CW  24080.17299477  .00056812  00000-0  14758-2 0  9997","2 55101  97.4326 145.5425 0011681 110.5105 249.7395 15.38694620 67401","2023-001CW","55101","6828.105","93.586","457.946","441.995","0"
"GENERATED VIA SPACETRACK.ORG API","18 SPCS","55101","SPACEBEE-159","PAYLOAD","U","23001CW","2024-03-20 16:38:16","286784","15.38754258","0.001161","97.4323","146.0702","108.4668","251.784","0","999","6748","0.0015237","0.00058786","0","4235427","0 SPACEBEE-159","1 55101U 23001CW  24080.69324406  .00058786  00000-0  15237-2 0  9990","2 55101  97.4323 146.0702 0011610 108.4668 251.7840 15.38754258 67484","2023-001CW","55101","6827.929","93.582","457.721","441.867","0"
"GENERATED VIA SPACETRACK.ORG API","18 SPCS","55101","SPACEBEE-159","PAYLOAD","U","23001CW","2024-03-21 03:33:45","548640","15.38816246","0.0011557","97.4322","146.5313","107.4081","252.8429","0","999","6755","0.0017507","0.0006777","0","4236018","0 SPACEBEE-159","1 55101U 23001CW  24081.14844385  .00067770  00000-0  17507-2 0  9999","2 55101  97.4322 146.5313 0011557 107.4081 252.8429 15.38816246 67553","2023-001CW","55101","6827.746","93.578","457.501","441.720","0"
"GENERATED VIA SPACETRACK.ORG API","18 SPCS","55101","SPACEBEE-159","PAYLOAD","U","23001CW","2024-03-21 09:48:18","731232","15.38848092","0.0011542","97.4322","146.7954","106.2968","253.9547","0","999","6759","0.0018201","0.00070558","0","4236727","0 SPACEBEE-159","1 55101U 23001CW  24081.40855013  .00070558  00000-0  18201-2 0  9998","2 55101  97.4322 146.7954 0011542 106.2968 253.9547 15.38848092 67592","2023-001CW","55101","6827.651","93.576","457.397","441.636","0"
"GENERATED VIA SPACETRACK.ORG API","18 SPCS","55101","SPACEBEE-159","PAYLOAD","U","23001CW","2024-03-21 17:36:29","500128","15.38896719","0.0011475","97.4321","147.1249","105.1788","255.0727","0","999","6764","0.0019276","0.00074888","0","4237326","0 SPACEBEE-159","1 55101U 23001CW  24081.73367477  .00074888  00000-0  19276-2 0  9999","2 55101  97.4321 147.1249 0011475 105.1788 255.0727 15.38896719 67644","2023-001CW","55101","6827.508","93.574","457.207","441.538","0"
"GENERATED VIA SPACETRACK.ORG API","18 SPCS","55101","SPACEBEE-159","PAYLOAD","U","23001CW","2024-03-22 02:58:17","832","15.38971183","0.0011503","97.4322","147.5201","104.1376","256.1149","0","999","6770","0.0021534","0.00083973","0","4237926","0 SPACEBEE-159","1 55101U 23001CW  24082.12380788  .00083973  00000-0  21534-2 0  9998","2 55101  97.4322 147.5201 0011503 104.1376 256.1149 15.38971183 67707","2023-001CW","55101","6827.287","93.569","457.006","441.299","0"
"GENERATED VIA SPACETRACK.ORG API","18 SPCS","55101","SPACEBEE-159","PAYLOAD","U","23001CW","2024-03-22 02:58:17","832","15.38971183","0.0011503","97.4322","147.5201","104.1376","256.1149","0","999","6770","0.0021534","0.00083973","0","4238588","0 SPACEBEE-159","1 55101U 23001CW  24082.12380788  .00083973  00000-0  21534-2 0  9998","2 55101  97.4322 147.5201 0011503 104.1376 256.1149 15.38971183 67707","2023-001CW","55101","6827.287","93.569","457.006","441.299","0"
